{
  "norad_id": 62477,
  "name": "STARLINK-32733",
  "history": [
    {
      "epoch": "2026-03-28T05:38:23.487648Z",
      "apogee_km": 483.35324721470624,
      "perigee_km": 482.74534610882074,
      "latitude_deg": 4.456567263218763e-06,
      "longitude_deg": 1.0035831613988846,
      "height_km": 482.5855008876598,
      "semi_major_axis_km": 6861.186296661763,
      "eccentricity": 4.43e-05,
      "inclination_deg": 42.9977,
      "raan_deg": 271.2598,
      "arg_perigee_deg": 38.2505,
      "mean_anomaly_deg": 321.8378,
      "mean_motion_rev_day": 15.27579933
    }
  ]
}