{"fetched_at":"2026-03-29T16:36:15Z","count":15609,"tles":[{"name":"STARLINK-32733","line1":"1 62477U 24254R   26087.23499407  .00022607  00000+0  82852-3 0  9998","line2":"2 62477  42.9977 271.2598 0000443  38.2505 321.8378 15.27579933 70497","category":"Starlink"}]}